OBJECT_NAME,OBJECT_ID,EPOCH,MEAN_MOTION,ECCENTRICITY,INCLINATION,RA_OF_ASC_NODE,ARG_OF_PERICENTER,MEAN_ANOMALY,EPHEMERIS_TYPE,CLASSIFICATION_TYPE,NORAD_CAT_ID,ELEMENT_SET_NO,REV_AT_EPOCH,BSTAR,MEAN_MOTION_DOT,MEAN_MOTION_DDOT
STARLINK-3592,2022-017AK,2026-07-04T08:00:03.000384,15.26029754,.00015864,53.1610,184.5564,55.6725,314.4655,0,U,51801,999,580,.39764862E-1,.1122837E-1,0
STARLINK-3544,2022-017AM,2026-07-04T08:00:03.000384,15.33527629,.00013052,53.1599,183.4571,82.4842,192.3311,0,U,51803,999,577,.10789965E-2,.35256E-3,0
STARLINK-3601,2022-017AN,2026-07-04T04:54:10.899648,15.08831741,.00011932,53.1592,165.8685,76.0367,284.0757,0,U,51804,999,24174,.3629301E-4,.29E-5,0
STARLINK-3605,2022-017AP,2026-07-04T04:59:29.415840,15.08835212,.00014831,53.1590,165.9287,47.2316,312.8800,0,U,51805,999,24183,.82067475E-4,.1018E-4,0
STARLINK-3606,2022-017AR,2026-07-03T08:39:20.329344,15.08830172,.00010626,53.1592,179.6578,70.4216,289.6890,0,U,51807,999,24157,.1223845E-5,-.268E-5,0
STARLINK-3609,2022-017AS,2026-07-04T06:31:34.024512,15.09959005,.00009712,53.1602,175.5505,68.2479,291.8617,0,U,51808,999,24156,.80274448E-2,.133965E-2,0
STARLINK-3607,2022-017AT,2026-07-04T03:32:26.464128,15.09375974,.00035267,53.1599,176.0754,17.3212,342.7900,0,U,51809,999,24164,.40041964E-2,.64983E-3,0
STARLINK-3613,2022-017AU,2026-07-03T06:12:19.800864,15.08827858,.00014814,53.1603,170.3404,68.8721,291.2428,0,U,51810,999,24152,.12488686E-4,-.89E-6,0
STARLINK-3569,2022-017AV,2026-07-04T08:00:03.000384,15.21109816,.00019779,53.1614,174.8878,75.4439,78.8179,0,U,51811,999,576,.47574914E-1,.1165207E-1,0
STARLINK-3610,2022-017AW,2026-07-04T05:15:22.585824,15.08835763,.00012354,53.1598,165.8018,81.6978,278.4153,0,U,51812,999,24167,.2580015E-4,.123E-5,0
STARLINK-3552,2022-017AX,2026-07-03T08:08:52.513152,15.08831088,.00011661,53.1591,169.7847,76.6505,283.4617,0,U,51813,999,24154,.35235786E-4,.273E-5,0
STARLINK-3599,2022-017AY,2026-07-04T05:04:46.672320,15.08835395,.00012521,53.1596,165.8357,85.1380,274.9754,0,U,51814,999,24167,.49009588E-4,.492E-5,0
STARLINK-3604,2022-017AZ,2026-07-04T08:00:03.000384,15.29332785,.00010983,53.1594,164.1345,86.5677,70.8957,0,U,51815,999,570,.19099893E-2,.55129E-3,0
STARLINK-3542,2022-022A,2026-07-04T08:00:03.000384,15.24910261,.00016849,53.1610,214.5705,86.5784,91.5741,0,U,51852,999,570,.40998651E-1,.1119295E-1,0
STARLINK-3541,2022-022C,2026-07-03T19:03:48.263904,15.19192636,.00017728,53.2075,209.7884,351.5694,8.5273,0,U,51854,999,24066,.13161469E-2,.27824E-3,0
STARLINK-3545,2022-022D,2026-07-04T08:00:03.000384,15.23202830,.00016684,53.1607,214.6640,94.7738,95.1230,0,U,51855,999,570,.46410594E-1,.1212793E-1,0
STARLINK-3568,2022-022E,2026-07-04T08:00:03.000384,15.25045583,.00014602,53.1606,214.6947,90.2648,64.2410,0,U,51856,999,576,.42335678E-1,.1164296E-1,0
STARLINK-3571,2022-022F,2026-07-04T08:00:03.000384,15.25934826,.00011731,53.1605,214.6127,97.6984,158.6516,0,U,51857,999,560,.42050208E-1,.1189821E-1,0
STARLINK-3563,2022-022G,2026-07-04T08:00:03.000384,15.20951722,.00017625,53.1591,214.8739,69.6436,32.3458,0,U,51858,999,570,.4722788E-1,.1150154E-1,0
STARLINK-3560,2022-022H,2026-07-04T08:00:03.000384,15.17414838,.00012514,53.1597,205.1163,108.5812,142.1595,0,U,51859,999,571,.52979404E-1,.1166804E-1,0
STARLINK-3559,2022-022J,2026-07-04T01:06:18.998208,15.08833871,.00010506,53.1597,206.5791,78.7651,281.3458,0,U,51860,999,24068,.45625343E-4,.438E-5,0
STARLINK-3562,2022-022K,2026-07-04T02:20:30.599232,15.08828437,.00010832,53.1584,206.3466,76.5752,283.5360,0,U,51861,999,24060,-.8374018E-5,-.421E-5,0
STARLINK-3508,2022-022L,2026-07-03T12:17:56.048928,15.08831672,.00010637,53.1593,208.9781,78.5080,281.6031,0,U,51862,999,24065,.9590558E-5,-.135E-5,0
STARLINK-3555,2022-022M,2026-07-03T18:12:59.449824,15.08839828,.00011304,53.1578,207.8688,79.7858,280.3260,0,U,51863,999,24063,.43614444E-3,.666E-4,0
STARLINK-3548,2022-022N,2026-07-04T03:50:36.494304,15.08820537,.00011072,53.1587,205.9875,85.6768,274.4350,0,U,51864,999,24074,.7556166E-4,.914E-5,0
STARLINK-3503,2022-022P,2026-07-04T01:59:18.400704,15.08831968,.00009816,53.1598,206.4122,86.2443,273.8661,0,U,51865,999,24068,-.1773088E-5,-.316E-5,0
STARLINK-3553,2022-022Q,2026-07-03T11:36:53.301600,15.08833760,.00010023,53.1589,208.9595,83.7967,276.3139,0,U,51866,999,24059,-.13546026E-4,-.503E-5,0
STARLINK-3590,2022-022R,2026-07-04T01:54:02.968128,15.08752507,.0001186,53.1602,206.4294,83.7983,276.3143,0,U,51867,999,24068,.10938768E-2,.17123E-3,0
STARLINK-3578,2022-022S,2026-07-04T02:04:36.409728,15.08831785,.00011312,53.1593,206.3959,77.2044,282.9074,0,U,51868,999,24068,.32283075E-4,.226E-5,0
STARLINK-3588,2022-022T,2026-07-04T01:38:06.507168,15.08833783,.0001173,53.1594,206.4794,77.5728,282.5395,0,U,51869,999,24068,-.5461566E-5,-.375E-5,0
