STARLINK-3592           
1 51801U 22017AK  26185.33336806  .01122837  00000+0  39765-1 0  9995
2 51801  53.1610 184.5564 0001586  55.6725 314.4655 15.26029754  5808
STARLINK-3544           
1 51803U 22017AM  26185.33336806  .00035256  00000+0  10790-2 0  9992
2 51803  53.1599 183.4571 0001305  82.4842 192.3311 15.33527629  5779
STARLINK-3601           
1 51804U 22017AN  26185.20429282  .00000290  00000+0  36293-4 0  9998
2 51804  53.1592 165.8685 0001193  76.0367 284.0757 15.08831741241746
STARLINK-3605           
1 51805U 22017AP  26185.20797935  .00001018  00000+0  82067-4 0  9991
2 51805  53.1590 165.9287 0001483  47.2316 312.8800 15.08835212241836
STARLINK-3606           
1 51807U 22017AR  26184.36065196 -.00000268  00000+0  12238-5 0  9997
2 51807  53.1592 179.6578 0001062  70.4216 289.6890 15.08830172241576
STARLINK-3609           
1 51808U 22017AS  26185.27192158  .00133965  00000+0  80274-2 0  9990
2 51808  53.1602 175.5505 0000971  68.2479 291.8617 15.09959005241567
STARLINK-3607           
1 51809U 22017AT  26185.14752852  .00064983  00000+0  40042-2 0  9992
2 51809  53.1599 176.0754 0003526  17.3212 342.7900 15.09375974241641
STARLINK-3613           
1 51810U 22017AU  26184.25856251 -.00000089  00000+0  12489-4 0  9997
2 51810  53.1603 170.3404 0001481  68.8721 291.2428 15.08827858241524
STARLINK-3569           
1 51811U 22017AV  26185.33336806  .01165207  00000+0  47575-1 0  9992
2 51811  53.1614 174.8878 0001977  75.4439  78.8179 15.21109816  5769
STARLINK-3610           
1 51812U 22017AW  26185.21901141  .00000123  00000+0  25800-4 0  9994
2 51812  53.1598 165.8018 0001235  81.6978 278.4153 15.08835763241675
STARLINK-3552           
1 51813U 22017AX  26184.33949668  .00000273  00000+0  35236-4 0  9993
2 51813  53.1591 169.7847 0001166  76.6505 283.4617 15.08831088241548
STARLINK-3599           
1 51814U 22017AY  26185.21165130  .00000492  00000+0  49010-4 0  9994
2 51814  53.1596 165.8357 0001252  85.1380 274.9754 15.08835395241675
STARLINK-3604           
1 51815U 22017AZ  26185.33336806  .00055129  00000+0  19100-2 0  9990
2 51815  53.1594 164.1345 0001098  86.5677  70.8957 15.29332785  5703
STARLINK-3542           
1 51852U 22022A   26185.33336806  .01119295  00000+0  40999-1 0  9992
2 51852  53.1610 214.5705 0001684  86.5784  91.5741 15.24910261  5700
STARLINK-3541           
1 51854U 22022C   26184.79430861  .00027824  00000+0  13161-2 0  9996
2 51854  53.2075 209.7884 0001772 351.5694   8.5273 15.19192636240661
STARLINK-3545           
1 51855U 22022D   26185.33336806  .01212793  00000+0  46411-1 0  9997
2 51855  53.1607 214.6640 0001668  94.7738  95.1230 15.23202830  5708
STARLINK-3568           
1 51856U 22022E   26185.33336806  .01164296  00000+0  42336-1 0  9994
2 51856  53.1606 214.6947 0001460  90.2648  64.2410 15.25045583  5764
STARLINK-3571           
1 51857U 22022F   26185.33336806  .01189821  00000+0  42050-1 0  9999
2 51857  53.1605 214.6127 0001173  97.6984 158.6516 15.25934826  5604
STARLINK-3563           
1 51858U 22022G   26185.33336806  .01150154  00000+0  47228-1 0  9999
2 51858  53.1591 214.8739 0001762  69.6436  32.3458 15.20951722  5708
STARLINK-3560           
1 51859U 22022H   26185.33336806  .01166804  00000+0  52979-1 0  9998
2 51859  53.1597 205.1163 0001251 108.5812 142.1595 15.17414838  5714
STARLINK-3559           
1 51860U 22022J   26185.04605322  .00000438  00000+0  45625-4 0  9992
2 51860  53.1597 206.5791 0001050  78.7651 281.3458 15.08833871240687
STARLINK-3562           
1 51861U 22022K   26185.09757638 -.00000421  00000+0 -83740-5 0  9991
2 51861  53.1584 206.3466 0001083  76.5752 283.5360 15.08828437240605
STARLINK-3508           
1 51862U 22022L   26184.51245427 -.00000135  00000+0  95906-5 0  9994
2 51862  53.1593 208.9781 0001063  78.5080 281.6031 15.08831672240652
STARLINK-3555           
1 51863U 22022M   26184.75902141  .00006660  00000+0  43614-3 0  9999
2 51863  53.1578 207.8688 0001130  79.7858 280.3260 15.08839828240630
STARLINK-3548           
1 51864U 22022N   26185.16014461  .00000914  00000+0  75562-4 0  9999
2 51864  53.1587 205.9875 0001107  85.6768 274.4350 15.08820537240741
STARLINK-3503           
1 51865U 22022P   26185.08285186 -.00000316  00000+0 -17731-5 0  9998
2 51865  53.1598 206.4122 0000981  86.2443 273.8661 15.08831968240682
STARLINK-3553           
1 51866U 22022Q   26184.48395025 -.00000503  00000+0 -13546-4 0  9993
2 51866  53.1589 208.9595 0001002  83.7967 276.3139 15.08833760240592
STARLINK-3590           
1 51867U 22022R   26185.07920102  .00017123  00000+0  10939-2 0  9995
2 51867  53.1602 206.4294 0001186  83.7983 276.3143 15.08752507240683
STARLINK-3578           
1 51868U 22022S   26185.08653252  .00000226  00000+0  32283-4 0  9990
2 51868  53.1593 206.3959 0001131  77.2044 282.9074 15.08831785240688
STARLINK-3588           
1 51869U 22022T   26185.06813087 -.00000375  00000+0 -54616-5 0  9995
2 51869  53.1594 206.4794 0001173  77.5728 282.5395 15.08833783240688
